[{"OBJECT_NAME":"STARLINK-1733","OBJECT_ID":"2020-070AJ","EPOCH":"2026-03-10T00:00:02.999808","MEAN_MOTION":15.74070769,"ECCENTRICITY":0.00019603,"INCLINATION":53.0418,"RA_OF_ASC_NODE":105.8439,"ARG_OF_PERICENTER":358.1851,"MEAN_ANOMALY":270.2405,"EPHEMERIS_TYPE":0,"CLASSIFICATION_TYPE":"U","NORAD_CAT_ID":46564,"ELEMENT_SET_NO":999,"REV_AT_EPOCH":596,"BSTAR":0.0010340128,"MEAN_MOTION_DOT":0.0015282,"MEAN_MOTION_DDOT":0},{"OBJECT_NAME":"STARLINK-36639","OBJECT_ID":"2026-022X","EPOCH":"2026-03-09T15:16:09.716448","MEAN_MOTION":15.75193353,"ECCENTRICITY":0.0001984,"INCLINATION":97.2844,"RA_OF_ASC_NODE":102.6583,"ARG_OF_PERICENTER":65.5542,"MEAN_ANOMALY":294.593,"EPHEMERIS_TYPE":0,"CLASSIFICATION_TYPE":"U","NORAD_CAT_ID":67669,"ELEMENT_SET_NO":999,"REV_AT_EPOCH":554,"BSTAR":0.0016618,"MEAN_MOTION_DOT":0.0025533,"MEAN_MOTION_DDOT":0}]
